OBJECT_NAME,OBJECT_ID,EPOCH,MEAN_MOTION,ECCENTRICITY,INCLINATION,RA_OF_ASC_NODE,ARG_OF_PERICENTER,MEAN_ANOMALY,EPHEMERIS_TYPE,CLASSIFICATION_TYPE,NORAD_CAT_ID,ELEMENT_SET_NO,REV_AT_EPOCH,BSTAR,MEAN_MOTION_DOT,MEAN_MOTION_DDOT
PROBA-1,2001-049B,2026-07-16T20:55:44.820192,15.07618717,.0055612,97.9600,207.4431,24.3155,336.0677,0,U,26958,999,34809,.53312E-4,.768E-5,0
CUTE-1 (CO-55),2003-031E,2026-07-16T12:59:16.292256,14.24352049,.0010852,98.6744,205.7314,99.2116,261.0291,0,U,27844,999,19585,.75515E-4,.131E-5,0
CUBESAT XI-IV (CO-57),2003-031J,2026-07-16T11:22:41.501280,14.23634953,.0010587,98.6775,205.3542,115.9860,244.2410,0,U,27848,999,19554,.65297E-4,.105E-5,0
APRIZESAT 4,2009-041D,2026-07-16T15:46:01.197120,14.83914885,.0042314,98.1404,273.5636,224.6866,135.0935,0,U,35684,999,91573,.47854E-4,.344E-5,0
APRIZESAT 3,2009-041F,2026-07-16T20:34:42.235392,14.96313574,.0060741,98.2104,352.5098,330.3880,29.3905,0,U,35686,999,92081,.58323E-4,.614E-5,0
PROBA-2,2009-059B,2026-07-16T17:52:56.269344,14.54873992,.0013118,98.2460,20.6896,183.8877,176.2220,0,U,36037,999,88582,.2361E-4,.56E-6,0
APRIZESAT 5,2011-044E,2026-07-16T19:12:15.055200,14.81128947,.0050686,98.2448,131.6814,267.3823,92.1586,0,U,37792,999,80317,.54422E-4,.372E-5,0
APRIZESAT 6,2011-044F,2026-07-16T16:29:47.355360,14.76958082,.0042928,98.2336,108.7867,353.4977,79.6691,0,U,37793,999,80150,.56825E-4,.349E-5,0
PROBA-V,2013-021A,2026-07-16T11:57:16.091424,14.23603527,.0005214,98.3606,174.6608,56.9313,303.2366,0,U,39159,999,68528,.22911E-4,.11E-6,0
APRIZESAT 7,2013-066A,2026-07-16T14:29:32.841312,14.91620836,.0037281,97.7723,150.4042,112.8268,247.6895,0,U,39416,999,68561,.64412E-4,.597E-5,0
APRIZESAT 8,2013-066K,2026-07-16T09:35:35.744064,14.87697448,.0045594,97.8230,144.4629,187.8935,172.1569,0,U,39425,999,68401,.44928E-4,.36E-5,0
BUGSAT-1 (TITA),2014-033E,2026-07-16T19:25:16.069728,15.15891555,.002894,98.0433,292.0970,80.5442,279.9058,0,U,40014,999,66032,.20223E-3,.3836E-4,0
SAUDISAT 4,2014-033G,2026-07-16T09:38:55.951872,14.79576218,.0044157,97.7619,342.5326,340.1095,19.8394,0,U,40016,999,65039,.35268E-4,.216E-5,0
APRIZESAT 9,2014-033J,2026-07-16T07:48:22.272192,14.74253373,.0067465,97.9096,329.8172,106.3797,254.4843,0,U,40018,999,64785,.51155E-4,.298E-5,0
APRIZESAT 10,2014-033K,2026-07-16T18:52:31.446912,14.70911971,.0078864,97.9684,324.0912,178.2736,181.8758,0,U,40019,999,64660,.52299E-4,.283E-5,0
TECHDEMOSAT-1 (TDS-1),2014-037H,2026-07-16T13:53:17.987424,15.13691172,.0007042,98.3828,192.7162,154.2916,205.8664,0,U,40076,999,65267,.21904E-3,.3866E-4,0
TECHNOSAT,2017-042E,2026-07-16T10:28:09.790752,15.05115319,.0017314,97.4319,353.9886,359.5045,0.6162,0,U,42829,999,49110,.1122E-3,.1542E-4,0
FLYING LAPTOP,2017-042G,2026-07-16T20:18:41.647968,15.01320334,.001964,97.4812,352.2646,27.2468,332.9783,0,U,42831,999,49090,.17382E-3,.2188E-4,0
HAWK-A,2018-099H,2026-07-16T14:47:36.021696,15.24975549,.0034888,97.3895,249.4721,178.9967,181.1347,0,U,43765,999,41758,.15182E-3,.3776E-4,0
HAWK-B,2018-099AN,2026-07-16T16:09:31.584672,15.23125267,.0031535,97.3943,248.8811,196.8320,163.1874,0,U,43794,999,41752,.14271E-3,.3341E-4,0
HAWK-C,2018-099AT,2026-07-16T20:28:23.990016,15.28506553,.004047,97.3871,250.7657,177.9770,182.1641,0,U,43799,999,41844,.16914E-3,.4728E-4,0
SALSAT,2020-068K,2026-07-16T13:49:24.532032,15.30183636,.0009353,97.8858,202.4396,187.8123,172.2972,0,U,46495,999,31985,.14101E-3,.4037E-4,0
HAWK-2C,2021-006CT,2026-07-16T16:27:46.964736,15.35000229,.0008678,97.2261,241.4114,96.6897,263.5334,0,U,47502,999,30402,.10878E-3,.3619E-4,0
HAWK-2A,2021-006CW,2026-07-16T16:30:57.290112,15.35021611,.000821,97.2303,242.1085,99.9973,260.2197,0,U,47505,999,30402,.13239E-3,.4423E-4,0
HAWK-2B,2021-006CZ,2026-07-16T14:47:35.276064,15.35148492,.000877,97.2174,240.3238,98.6106,261.6132,0,U,47508,999,30401,.126E-3,.4224E-4,0
HAWK-3B,2021-059BE,2026-07-16T12:01:03.159264,15.71948524,.0004634,97.6631,37.0342,193.4440,166.6700,0,U,48931,999,28245,.23387E-3,.30374E-3,0
HAWK-3C,2021-059BX,2026-07-16T13:32:15.825984,15.71954344,.00049,97.6747,42.8396,193.7656,166.3473,0,U,48948,999,28246,.24609E-3,.31986E-3,0
HAWK-3A,2021-059CG,2026-07-16T13:32:06.050688,15.71953796,.000482,97.6691,40.0209,195.8610,164.2502,0,U,48957,999,28246,.22989E-3,.29863E-3,0
HAWK-5C,2022-057Y,2026-07-16T10:43:15.667968,15.52353614,.0002676,97.6619,359.0269,341.0919,19.0233,0,U,52754,999,23088,.1826E-3,.11022E-3,0
HAWK-5B,2022-057AA,2026-07-16T19:59:56.234400,15.52358501,.0003341,97.6633,357.7930,324.6672,35.4358,0,U,52756,999,23094,.17649E-3,.10652E-3,0
HAWK-5A,2022-057AB,2026-07-16T10:42:42.867936,15.52352143,.0003229,97.6626,358.2106,332.4655,27.6425,0,U,52757,999,23088,.18293E-3,.11042E-3,0
