PROBA-1                 
1 26958U 01049B   26197.87204653  .00000768  00000+0  53312-4 0  9992
2 26958  97.9600 207.4431 0055612  24.3155 336.0677 15.07618717348092
CUTE-1 (CO-55)          
1 27844U 03031E   26197.54116079  .00000131  00000+0  75515-4 0  9991
2 27844  98.6744 205.7314 0010852  99.2116 261.0291 14.24352049195854
CUBESAT XI-IV (CO-57)   
1 27848U 03031J   26197.47409145  .00000105  00000+0  65297-4 0  9993
2 27848  98.6775 205.3542 0010587 115.9860 244.2410 14.23634953195546
APRIZESAT 4             
1 35684U 09041D   26197.65695830  .00000344  00000+0  47854-4 0  9999
2 35684  98.1404 273.5636 0042314 224.6866 135.0935 14.83914885915736
APRIZESAT 3             
1 35686U 09041F   26197.85743328  .00000614  00000+0  58323-4 0  9992
2 35686  98.2104 352.5098 0060741 330.3880  29.3905 14.96313574920810
PROBA-2                 
1 36037U 09059B   26197.74509571  .00000056  00000+0  23610-4 0  9991
2 36037  98.2460  20.6896 0013118 183.8877 176.2220 14.54873992885820
APRIZESAT 5             
1 37792U 11044E   26197.80017425  .00000372  00000+0  54422-4 0  9992
2 37792  98.2448 131.6814 0050686 267.3823  92.1586 14.81128947803170
APRIZESAT 6             
1 37793U 11044F   26197.68735365  .00000349  00000+0  56825-4 0  9992
2 37793  98.2336 108.7867 0042928 353.4977  79.6691 14.76958082801504
PROBA-V                 
1 39159U 13021A   26197.49810291  .00000011  00000+0  22911-4 0  9993
2 39159  98.3606 174.6608 0005214  56.9313 303.2366 14.23603527685287
APRIZESAT 7             
1 39416U 13066A   26197.60385233  .00000597  00000+0  64412-4 0  9995
2 39416  97.7723 150.4042 0037281 112.8268 247.6895 14.91620836685612
APRIZESAT 8             
1 39425U 13066K   26197.39971926  .00000360  00000+0  44928-4 0  9999
2 39425  97.8230 144.4629 0045594 187.8935 172.1569 14.87697448684010
BUGSAT-1 (TITA)         
1 40014U 14033E   26197.80921377  .00003836  00000+0  20223-3 0  9993
2 40014  98.0433 292.0970 0028940  80.5442 279.9058 15.15891555660325
SAUDISAT 4              
1 40016U 14033G   26197.40203648  .00000216  00000+0  35268-4 0  9990
2 40016  97.7619 342.5326 0044157 340.1095  19.8394 14.79576218650397
APRIZESAT 9             
1 40018U 14033J   26197.32525778  .00000298  00000+0  51155-4 0  9997
2 40018  97.9096 329.8172 0067465 106.3797 254.4843 14.74253373647857
APRIZESAT 10            
1 40019U 14033K   26197.78647508  .00000283  00000+0  52299-4 0  9998
2 40019  97.9684 324.0912 0078864 178.2736 181.8758 14.70911971646607
TECHDEMOSAT-1 (TDS-1)   
1 40076U 14037H   26197.57868041  .00003866  00000+0  21904-3 0  9997
2 40076  98.3828 192.7162 0007042 154.2916 205.8664 15.13691172652679
TECHNOSAT               
1 42829U 17042E   26197.43622443  .00001542  00000+0  11220-3 0  9992
2 42829  97.4319 353.9886 0017314 359.5045   0.6162 15.05115319491100
FLYING LAPTOP           
1 42831U 17042G   26197.84631537  .00002188  00000+0  17382-3 0  9996
2 42831  97.4812 352.2646 0019640  27.2468 332.9783 15.01320334490907
HAWK-A                  
1 43765U 18099H   26197.61638914  .00003776  00000+0  15182-3 0  9997
2 43765  97.3895 249.4721 0034888 178.9967 181.1347 15.24975549417586
HAWK-B                  
1 43794U 18099AN  26197.67328223  .00003341  00000+0  14271-3 0  9990
2 43794  97.3943 248.8811 0031535 196.8320 163.1874 15.23125267417525
HAWK-C                  
1 43799U 18099AT  26197.85305544  .00004728  00000+0  16914-3 0  9992
2 43799  97.3871 250.7657 0040470 177.9770 182.1641 15.28506553418448
SALSAT                  
1 46495U 20068K   26197.57597838  .00004037  00000+0  14101-3 0  9994
2 46495  97.8858 202.4396 0009353 187.8123 172.2972 15.30183636319853
HAWK-2C                 
1 47502U 21006CT  26197.68596024  .00003619  00000+0  10878-3 0  9997
2 47502  97.2261 241.4114 0008678  96.6897 263.5334 15.35000229304020
HAWK-2A                 
1 47505U 21006CW  26197.68816308  .00004423  00000+0  13239-3 0  9998
2 47505  97.2303 242.1085 0008210  99.9973 260.2197 15.35021611304027
HAWK-2B                 
1 47508U 21006CZ  26197.61638051  .00004224  00000+0  12600-3 0  9991
2 47508  97.2174 240.3238 0008770  98.6106 261.6132 15.35148492304011
HAWK-3B                 
1 48931U 21059BE  26197.50073101  .00030374  00000+0  23387-3 0  9996
2 48931  97.6631  37.0342 0004634 193.4440 166.6700 15.71948524282453
HAWK-3C                 
1 48948U 21059BX  26197.56407206  .00031986  00000+0  24609-3 0  9995
2 48948  97.6747  42.8396 0004900 193.7656 166.3473 15.71954344282462
HAWK-3A                 
1 48957U 21059CG  26197.56395892  .00029863  00000+0  22989-3 0  9992
2 48957  97.6691  40.0209 0004820 195.8610 164.2502 15.71953796282467
HAWK-5C                 
1 52754U 22057Y   26197.44670912  .00011022  00000+0  18260-3 0  9992
2 52754  97.6619 359.0269 0002676 341.0919  19.0233 15.52353614230889
HAWK-5B                 
1 52756U 22057AA  26197.83328975  .00010652  00000+0  17649-3 0  9994
2 52756  97.6633 357.7930 0003341 324.6672  35.4358 15.52358501230947
HAWK-5A                 
1 52757U 22057AB  26197.44632949  .00011042  00000+0  18293-3 0  9991
2 52757  97.6626 358.2106 0003229 332.4655  27.6425 15.52352143230881
